ORBCOMM FM20            
1 25416U 98046D   25252.08479725  .00000807  00000+0  31511-3 0  9991
2 25416  44.9937 143.9113 0002036 357.6851   2.3987 14.37358485416338
ORBCOMM FM16            
1 25417U 98046E   25252.88254569  .00001099  00000+0  39765-3 0  9990
2 25417  44.9931 130.5764 0005522   8.9066 351.1880 14.39115144416459
ORBCOMM FM15            
1 25418U 98046F   25252.11596407  .00001010  00000+0  37166-3 0  9993
2 25418  44.9958 139.6156 0005272   3.6355 356.4531 14.38756657416336
ORBCOMM FM14            
1 25419U 98046G   25252.87597084  .00001034  00000+0  37679-3 0  9994
2 25419  44.9953 133.9975 0004029   5.0263 355.0625 14.39133489416412
ORBCOMM FM13            
1 25420U 98046H   25252.85606090  .00000894  00000+0  34033-3 0  9996
2 25420  44.9969 142.9023 0006172 347.6145  12.4550 14.37847842415424
ORBCOMM FM21            
1 25475U 98053A   25252.32607721  .00000942  00000+0  35866-3 0  9997
2 25475  45.0072 231.0003 0003765 292.3534  67.6915 14.37496386409357
ORBCOMM FM22            
1 25476U 98053B   25252.37062330  .00001182  00000+0  42881-3 0  9996
2 25476  45.0064 224.9523 0005519 293.4377  66.5891 14.38578603409392
ORBCOMM FM23            
1 25477U 98053C   25252.31569561  .00001043  00000+0  39058-3 0  9997
2 25477  45.0071 233.0500 0004764 288.3860  71.6470 14.37697359409500
