<?xml version="1.0" encoding="UTF-8"?>
<ndm xmlns:xsi="http://www.w3.org/2001/XMLSchema-instance" xsi:noNamespaceSchemaLocation="https://sanaregistry.org/r/ndmxml_unqualified/ndmxml-2.0.0-master-2.0.xsd">
<omm id="CCSDS_OMM_VERS" version="2.0">
<header><CREATION_DATE/><ORIGINATOR/></header><body><segment><metadata><OBJECT_NAME>ORBCOMM FM20</OBJECT_NAME><OBJECT_ID>1998-046D</OBJECT_ID><CENTER_NAME>EARTH</CENTER_NAME><REF_FRAME>TEME</REF_FRAME><TIME_SYSTEM>UTC</TIME_SYSTEM><MEAN_ELEMENT_THEORY>SGP4</MEAN_ELEMENT_THEORY></metadata><data><meanElements><EPOCH>2025-09-09T02:02:06.482400</EPOCH><MEAN_MOTION>14.37358485</MEAN_MOTION><ECCENTRICITY>.00020363</ECCENTRICITY><INCLINATION>44.9937</INCLINATION><RA_OF_ASC_NODE>143.9113</RA_OF_ASC_NODE><ARG_OF_PERICENTER>357.6851</ARG_OF_PERICENTER><MEAN_ANOMALY>2.3987</MEAN_ANOMALY></meanElements><tleParameters><EPHEMERIS_TYPE>0</EPHEMERIS_TYPE><CLASSIFICATION_TYPE>U</CLASSIFICATION_TYPE><NORAD_CAT_ID>25416</NORAD_CAT_ID><ELEMENT_SET_NO>999</ELEMENT_SET_NO><REV_AT_EPOCH>41633</REV_AT_EPOCH><BSTAR>.31510864E-3</BSTAR><MEAN_MOTION_DOT>.807E-5</MEAN_MOTION_DOT><MEAN_MOTION_DDOT>0</MEAN_MOTION_DDOT></tleParameters></data></segment></body></omm>
<omm id="CCSDS_OMM_VERS" version="2.0">
<header><CREATION_DATE/><ORIGINATOR/></header><body><segment><metadata><OBJECT_NAME>ORBCOMM FM16</OBJECT_NAME><OBJECT_ID>1998-046E</OBJECT_ID><CENTER_NAME>EARTH</CENTER_NAME><REF_FRAME>TEME</REF_FRAME><TIME_SYSTEM>UTC</TIME_SYSTEM><MEAN_ELEMENT_THEORY>SGP4</MEAN_ELEMENT_THEORY></metadata><data><meanElements><EPOCH>2025-09-09T21:10:51.947616</EPOCH><MEAN_MOTION>14.39115144</MEAN_MOTION><ECCENTRICITY>.00055223</ECCENTRICITY><INCLINATION>44.9931</INCLINATION><RA_OF_ASC_NODE>130.5764</RA_OF_ASC_NODE><ARG_OF_PERICENTER>8.9066</ARG_OF_PERICENTER><MEAN_ANOMALY>351.1880</MEAN_ANOMALY></meanElements><tleParameters><EPHEMERIS_TYPE>0</EPHEMERIS_TYPE><CLASSIFICATION_TYPE>U</CLASSIFICATION_TYPE><NORAD_CAT_ID>25417</NORAD_CAT_ID><ELEMENT_SET_NO>999</ELEMENT_SET_NO><REV_AT_EPOCH>41645</REV_AT_EPOCH><BSTAR>.39764919E-3</BSTAR><MEAN_MOTION_DOT>.1099E-4</MEAN_MOTION_DOT><MEAN_MOTION_DDOT>0</MEAN_MOTION_DDOT></tleParameters></data></segment></body></omm>
<omm id="CCSDS_OMM_VERS" version="2.0">
<header><CREATION_DATE/><ORIGINATOR/></header><body><segment><metadata><OBJECT_NAME>ORBCOMM FM15</OBJECT_NAME><OBJECT_ID>1998-046F</OBJECT_ID><CENTER_NAME>EARTH</CENTER_NAME><REF_FRAME>TEME</REF_FRAME><TIME_SYSTEM>UTC</TIME_SYSTEM><MEAN_ELEMENT_THEORY>SGP4</MEAN_ELEMENT_THEORY></metadata><data><meanElements><EPOCH>2025-09-09T02:46:59.295648</EPOCH><MEAN_MOTION>14.38756657</MEAN_MOTION><ECCENTRICITY>.00052727</ECCENTRICITY><INCLINATION>44.9958</INCLINATION><RA_OF_ASC_NODE>139.6156</RA_OF_ASC_NODE><ARG_OF_PERICENTER>3.6355</ARG_OF_PERICENTER><MEAN_ANOMALY>356.4531</MEAN_ANOMALY></meanElements><tleParameters><EPHEMERIS_TYPE>0</EPHEMERIS_TYPE><CLASSIFICATION_TYPE>U</CLASSIFICATION_TYPE><NORAD_CAT_ID>25418</NORAD_CAT_ID><ELEMENT_SET_NO>999</ELEMENT_SET_NO><REV_AT_EPOCH>41633</REV_AT_EPOCH><BSTAR>.37165602E-3</BSTAR><MEAN_MOTION_DOT>.101E-4</MEAN_MOTION_DOT><MEAN_MOTION_DDOT>0</MEAN_MOTION_DDOT></tleParameters></data></segment></body></omm>
<omm id="CCSDS_OMM_VERS" version="2.0">
<header><CREATION_DATE/><ORIGINATOR/></header><body><segment><metadata><OBJECT_NAME>ORBCOMM FM14</OBJECT_NAME><OBJECT_ID>1998-046G</OBJECT_ID><CENTER_NAME>EARTH</CENTER_NAME><REF_FRAME>TEME</REF_FRAME><TIME_SYSTEM>UTC</TIME_SYSTEM><MEAN_ELEMENT_THEORY>SGP4</MEAN_ELEMENT_THEORY></metadata><data><meanElements><EPOCH>2025-09-09T21:01:23.880576</EPOCH><MEAN_MOTION>14.39133489</MEAN_MOTION><ECCENTRICITY>.0004029</ECCENTRICITY><INCLINATION>44.9953</INCLINATION><RA_OF_ASC_NODE>133.9975</RA_OF_ASC_NODE><ARG_OF_PERICENTER>5.0263</ARG_OF_PERICENTER><MEAN_ANOMALY>355.0625</MEAN_ANOMALY></meanElements><tleParameters><EPHEMERIS_TYPE>0</EPHEMERIS_TYPE><CLASSIFICATION_TYPE>U</CLASSIFICATION_TYPE><NORAD_CAT_ID>25419</NORAD_CAT_ID><ELEMENT_SET_NO>999</ELEMENT_SET_NO><REV_AT_EPOCH>41641</REV_AT_EPOCH><BSTAR>.3767924E-3</BSTAR><MEAN_MOTION_DOT>.1034E-4</MEAN_MOTION_DOT><MEAN_MOTION_DDOT>0</MEAN_MOTION_DDOT></tleParameters></data></segment></body></omm>
<omm id="CCSDS_OMM_VERS" version="2.0">
<header><CREATION_DATE/><ORIGINATOR/></header><body><segment><metadata><OBJECT_NAME>ORBCOMM FM13</OBJECT_NAME><OBJECT_ID>1998-046H</OBJECT_ID><CENTER_NAME>EARTH</CENTER_NAME><REF_FRAME>TEME</REF_FRAME><TIME_SYSTEM>UTC</TIME_SYSTEM><MEAN_ELEMENT_THEORY>SGP4</MEAN_ELEMENT_THEORY></metadata><data><meanElements><EPOCH>2025-09-09T20:32:43.661760</EPOCH><MEAN_MOTION>14.37847842</MEAN_MOTION><ECCENTRICITY>.0006172</ECCENTRICITY><INCLINATION>44.9969</INCLINATION><RA_OF_ASC_NODE>142.9023</RA_OF_ASC_NODE><ARG_OF_PERICENTER>347.6145</ARG_OF_PERICENTER><MEAN_ANOMALY>12.4550</MEAN_ANOMALY></meanElements><tleParameters><EPHEMERIS_TYPE>0</EPHEMERIS_TYPE><CLASSIFICATION_TYPE>U</CLASSIFICATION_TYPE><NORAD_CAT_ID>25420</NORAD_CAT_ID><ELEMENT_SET_NO>999</ELEMENT_SET_NO><REV_AT_EPOCH>41542</REV_AT_EPOCH><BSTAR>.34032522E-3</BSTAR><MEAN_MOTION_DOT>.894E-5</MEAN_MOTION_DOT><MEAN_MOTION_DDOT>0</MEAN_MOTION_DDOT></tleParameters></data></segment></body></omm>
<omm id="CCSDS_OMM_VERS" version="2.0">
<header><CREATION_DATE/><ORIGINATOR/></header><body><segment><metadata><OBJECT_NAME>ORBCOMM FM21</OBJECT_NAME><OBJECT_ID>1998-053A</OBJECT_ID><CENTER_NAME>EARTH</CENTER_NAME><REF_FRAME>TEME</REF_FRAME><TIME_SYSTEM>UTC</TIME_SYSTEM><MEAN_ELEMENT_THEORY>SGP4</MEAN_ELEMENT_THEORY></metadata><data><meanElements><EPOCH>2025-09-09T07:49:33.070944</EPOCH><MEAN_MOTION>14.37496386</MEAN_MOTION><ECCENTRICITY>.00037659</ECCENTRICITY><INCLINATION>45.0072</INCLINATION><RA_OF_ASC_NODE>231.0003</RA_OF_ASC_NODE><ARG_OF_PERICENTER>292.3534</ARG_OF_PERICENTER><MEAN_ANOMALY>67.6915</MEAN_ANOMALY></meanElements><tleParameters><EPHEMERIS_TYPE>0</EPHEMERIS_TYPE><CLASSIFICATION_TYPE>U</CLASSIFICATION_TYPE><NORAD_CAT_ID>25475</NORAD_CAT_ID><ELEMENT_SET_NO>999</ELEMENT_SET_NO><REV_AT_EPOCH>40935</REV_AT_EPOCH><BSTAR>.35865973E-3</BSTAR><MEAN_MOTION_DOT>.942E-5</MEAN_MOTION_DOT><MEAN_MOTION_DDOT>0</MEAN_MOTION_DDOT></tleParameters></data></segment></body></omm>
<omm id="CCSDS_OMM_VERS" version="2.0">
<header><CREATION_DATE/><ORIGINATOR/></header><body><segment><metadata><OBJECT_NAME>ORBCOMM FM22</OBJECT_NAME><OBJECT_ID>1998-053B</OBJECT_ID><CENTER_NAME>EARTH</CENTER_NAME><REF_FRAME>TEME</REF_FRAME><TIME_SYSTEM>UTC</TIME_SYSTEM><MEAN_ELEMENT_THEORY>SGP4</MEAN_ELEMENT_THEORY></metadata><data><meanElements><EPOCH>2025-09-09T08:53:41.853120</EPOCH><MEAN_MOTION>14.38578603</MEAN_MOTION><ECCENTRICITY>.00055197</ECCENTRICITY><INCLINATION>45.0064</INCLINATION><RA_OF_ASC_NODE>224.9523</RA_OF_ASC_NODE><ARG_OF_PERICENTER>293.4377</ARG_OF_PERICENTER><MEAN_ANOMALY>66.5891</MEAN_ANOMALY></meanElements><tleParameters><EPHEMERIS_TYPE>0</EPHEMERIS_TYPE><CLASSIFICATION_TYPE>U</CLASSIFICATION_TYPE><NORAD_CAT_ID>25476</NORAD_CAT_ID><ELEMENT_SET_NO>999</ELEMENT_SET_NO><REV_AT_EPOCH>40939</REV_AT_EPOCH><BSTAR>.42880567E-3</BSTAR><MEAN_MOTION_DOT>.1182E-4</MEAN_MOTION_DOT><MEAN_MOTION_DDOT>0</MEAN_MOTION_DDOT></tleParameters></data></segment></body></omm>
<omm id="CCSDS_OMM_VERS" version="2.0">
<header><CREATION_DATE/><ORIGINATOR/></header><body><segment><metadata><OBJECT_NAME>ORBCOMM FM23</OBJECT_NAME><OBJECT_ID>1998-053C</OBJECT_ID><CENTER_NAME>EARTH</CENTER_NAME><REF_FRAME>TEME</REF_FRAME><TIME_SYSTEM>UTC</TIME_SYSTEM><MEAN_ELEMENT_THEORY>SGP4</MEAN_ELEMENT_THEORY></metadata><data><meanElements><EPOCH>2025-09-09T07:34:36.100704</EPOCH><MEAN_MOTION>14.37697359</MEAN_MOTION><ECCENTRICITY>.00047641</ECCENTRICITY><INCLINATION>45.0071</INCLINATION><RA_OF_ASC_NODE>233.0500</RA_OF_ASC_NODE><ARG_OF_PERICENTER>288.3860</ARG_OF_PERICENTER><MEAN_ANOMALY>71.6470</MEAN_ANOMALY></meanElements><tleParameters><EPHEMERIS_TYPE>0</EPHEMERIS_TYPE><CLASSIFICATION_TYPE>U</CLASSIFICATION_TYPE><NORAD_CAT_ID>25477</NORAD_CAT_ID><ELEMENT_SET_NO>999</ELEMENT_SET_NO><REV_AT_EPOCH>40950</REV_AT_EPOCH><BSTAR>.39058301E-3</BSTAR><MEAN_MOTION_DOT>.1043E-4</MEAN_MOTION_DOT><MEAN_MOTION_DDOT>0</MEAN_MOTION_DDOT></tleParameters></data></segment></body></omm>

</ndm>
